NORAD_CAT_ID,OBJECT_NAME,OBJECT_TYPE,EPOCH,MEAN_MOTION,ECCENTRICITY,INCLINATION,RA_OF_ASC_NODE,ARG_OF_PERICENTER,MEAN_ANOMALY,BSTAR,MEAN_MOTION_DOT,MEAN_MOTION_DDOT,TLE_LINE0,TLE_LINE1,TLE_LINE2,SEMIMAJOR_AXIS,PERIOD,APOGEE,PERIGEE,DECAYED
56805.0,STARLINK-6064,PAYLOAD,2023-09-22 20:44:47,15.69924648,0.0003401,69.9996,91.1127,265.1511,94.9296,3.0151e-06,1.5e-06,0.0,0 STARLINK-6064,1 56805U 23078AQ  23265.86443801  .00000150  00000-0  30151-5 0  9997,2 56805  69.9996  91.1127 0003401 265.1511  94.9296 15.69924648 18039,6737.25,91.724,361.406,356.823,0.0
56805.0,STARLINK-6064,PAYLOAD,2023-09-22 22:16:32,15.69924847,0.0003539,69.9993,90.9331,268.6854,91.3937,2.2559e-06,5.8e-07,0.0,0 STARLINK-6064,1 56805U 23078AQ  23265.92815465  .00000058  00000-0  22559-5 0  9993,2 56805  69.9993  90.9331 0003539 268.6854  91.3937 15.69924847 18304,6737.249,91.724,361.498,356.73,0.0
56805.0,STARLINK-6064,PAYLOAD,2023-09-23 13:34:03,15.69926014,0.0003484,69.9994,89.1415,271.0415,89.0381,-8.2523e-06,-1.205e-05,0.0,0 STARLINK-6064,1 56805U 23078AQ  23266.56532255 -.00001205  00000-0 -82523-5 0  9991,2 56805  69.9994  89.1415 0003484 271.0415  89.0381 15.69926014 18145,6737.246,91.724,361.458,356.763,0.0
56805.0,STARLINK-6064,PAYLOAD,2023-09-24 14:02:05,15.69927199,0.0003438,69.9993,86.2759,266.2648,93.8155,2.5705e-05,2.879e-05,0.0,0 STARLINK-6064,1 56805U 23078AQ  23267.58478825  .00002879  00000-0  25705-4 0  9990,2 56805  69.9993  86.2759 0003438 266.2648  93.8155 15.69927199 18301,6737.242,91.724,361.424,356.791,0.0
56805.0,STARLINK-6064,PAYLOAD,2023-09-24 15:33:50,15.69926274,0.0003468,69.9991,86.097,265.0682,95.0118,1.841e-05,2.002e-05,0.0,0 STARLINK-6064,1 56805U 23078AQ  23267.64850509  .00002002  00000-0  18410-4 0  9993,2 56805  69.9991  86.0970 0003468 265.0682  95.0118 15.69926274 18575,6737.245,91.724,361.446,356.773,0.0
56805.0,STARLINK-6064,PAYLOAD,2023-09-24 21:40:51,15.69931038,0.0004103,69.999,85.3785,267.162,92.9106,3.1452e-05,3.572e-05,0.0,0 STARLINK-6064,1 56805U 23078AQ  23267.90337040  .00003572  00000-0  31452-4 0  9996,2 56805  69.9990  85.3785 0004103 267.1620  92.9106 15.69931038 18355,6737.231,91.724,361.861,356.332,0.0
56805.0,STARLINK-6064,PAYLOAD,2023-09-25 12:58:22,15.69928631,0.0003142,69.9982,83.5881,277.7304,82.3535,2.2913e-05,2.544e-05,0.0,0 STARLINK-6064,1 56805U 23078AQ  23268.54054182  .00002544  00000-0  22913-4 0  9990,2 56805  69.9982  83.5881 0003142 277.7304  82.3535 15.69928631 18456,6737.238,91.724,361.22,356.986,0.0
56805.0,STARLINK-6064,PAYLOAD,2023-09-25 20:37:07,15.69942702,0.0003308,69.9992,82.6927,267.788,92.2937,4.212e-05,4.859e-05,0.0,0 STARLINK-6064,1 56805U 23078AQ  23268.85911592  .00004859  00000-0  42120-4 0  9994,2 56805  69.9992  82.6927 0003308 267.7880  92.2937 15.69942702 18507,6737.198,91.723,361.292,356.834,0.0
56805.0,STARLINK-6064,PAYLOAD,2023-09-26 14:58:10,15.69918036,0.0003477,69.9987,80.5412,281.1703,78.9102,2.1352e-05,2.355e-05,0.0,0 STARLINK-6064,1 56805U 23078AQ  23269.62373022  .00002355  00000-0  21352-4 0  9993,2 56805  69.9987  80.5412 0003477 281.1703  78.9102 15.69918036 18629,6737.268,91.725,361.476,356.791,0.0
56805.0,STARLINK-6064,PAYLOAD,2023-09-26 21:05:10,15.69928921,0.0003283,69.9991,79.8245,290.0789,70.0053,3.3749e-05,3.848e-05,0.0,0 STARLINK-6064,1 56805U 23078AQ  23269.87859306  .00003848  00000-0  33749-4 0  9995,2 56805  69.9991  79.8245 0003283 290.0789  70.0053 15.69928921 18663,6737.237,91.724,361.314,356.891,0.0
56805.0,STARLINK-6064,PAYLOAD,2023-09-27 12:22:42,15.69915601,0.0003578,69.9993,78.0339,284.3111,75.7687,3.9986e-07,-1.65e-06,0.0,0 STARLINK-6064,1 56805U 23078AQ  23270.51576562 -.00000165  00000-0  39986-6 0  9999,2 56805  69.9993  78.0339 0003578 284.3111  75.7687 15.69915601 18769,6737.275,91.725,361.551,356.73,0.0
56805.0,STARLINK-6064,PAYLOAD,2023-09-27 13:54:27,15.69916159,0.0003454,69.9989,77.8553,285.3389,74.7425,-9.3336e-06,-1.335e-05,0.0,0 STARLINK-6064,1 56805U 23078AQ  23270.57948179 -.00001335  00000-0 -93336-5 0  9991,2 56805  69.9989  77.8553 0003454 285.3389  74.7425 15.69916159 19039,6737.274,91.725,361.466,356.812,0.0
56805.0,STARLINK-6064,PAYLOAD,2023-09-28 12:50:43,15.69934284,0.0003381,69.9984,75.1657,270.9908,89.09,1.9341e-05,2.114e-05,0.0,0 STARLINK-6064,1 56805U 23078AQ  23271.53522442  .00002114  00000-0  19341-4 0  9996,2 56805  69.9984  75.1657 0003381 270.9908  89.0900 15.69934284 19188,6737.222,91.724,361.365,356.809,0.0
56805.0,STARLINK-6064,PAYLOAD,2023-09-28 14:22:28,15.69933237,0.0003413,69.9979,74.9869,270.0661,90.0144,1.5642e-05,1.669e-05,0.0,0 STARLINK-6064,1 56805U 23078AQ  23271.59894110  .00001669  00000-0  15642-4 0  9990,2 56805  69.9979  74.9869 0003413 270.0661  90.0144 15.69933237 18938,6737.225,91.724,361.389,356.791,0.0
56805.0,STARLINK-6064,PAYLOAD,2023-09-28 20:29:29,15.69923354,0.0003957,69.9985,74.2688,279.6303,80.4445,1.2911e-05,1.34e-05,0.0,0 STARLINK-6064,1 56805U 23078AQ  23271.85381451  .00001340  00000-0  12911-4 0  9990,2 56805  69.9985  74.2688 0003957 279.6303  80.4445 15.69923354 18978,6737.253,91.724,361.784,356.452,0.0
56805.0,STARLINK-6064,PAYLOAD,2023-09-29 13:18:45,15.69931245,0.0003608,69.999,72.3018,276.5926,83.4859,2.9327e-05,3.316e-05,0.0,0 STARLINK-6064,1 56805U 23078AQ  23272.55469659  .00003316  00000-0  29327-4 0  9999,2 56805  69.9990  72.3018 0003608 276.5926  83.4859 15.69931245 19083,6737.231,91.724,361.526,356.665,0.0
56805.0,STARLINK-6064,PAYLOAD,2023-09-29 19:25:46,15.69935747,0.000324,69.9997,71.5849,268.8868,91.1957,3.8963e-05,4.477e-05,0.0,0 STARLINK-6064,1 56805U 23078AQ  23272.80956195  .00004477  00000-0  38963-4 0  9998,2 56805  69.9997  71.5849 0003240 268.8868  91.1957 15.69935747 19383,6737.218,91.723,361.266,356.9,0.0
56805.0,STARLINK-6064,PAYLOAD,2023-09-30 10:43:17,15.6992063,0.0003113,69.9992,69.792,275.1758,84.9083,6.8718e-06,6.14e-06,0.0,0 STARLINK-6064,1 56805U 23078AQ  23273.44673361  .00000614  00000-0  68718-5 0  9991,2 56805  69.9992  69.7920 0003113 275.1758  84.9083 15.69920630 19481,6737.261,91.724,361.223,357.029,0.0
56805.0,STARLINK-6064,PAYLOAD,2023-09-30 19:53:48,15.69929571,0.0003325,70.0006,68.7174,265.8039,94.2777,2.5559e-05,2.862e-05,0.0,0 STARLINK-6064,1 56805U 23078AQ  23273.82902948  .00002862  00000-0  25559-4 0  9991,2 56805  70.0006  68.7174 0003325 265.8039  94.2777 15.69929571 19547,6737.235,91.724,361.341,356.86,0.0
56805.0,STARLINK-6064,PAYLOAD,2023-10-01 12:43:04,15.69928861,0.0002781,70.0024,66.7481,258.5308,101.5575,1.1037e-05,1.115e-05,0.0,0 STARLINK-6064,1 56805U 23078AQ  23274.52991290  .00001115  00000-0  11037-4 0  9993,2 56805  70.0024  66.7481 0002781 258.5308 101.5575 15.69928861 19391,6737.238,91.724,360.976,357.229,0.0
56805.0,STARLINK-6064,PAYLOAD,2023-10-01 18:50:05,15.699157,0.00032,70.003,66.0329,259.6311,100.4524,-1.7844e-05,-2.357e-05,0.0,0 STARLINK-6064,1 56805U 23078AQ  23274.78478485 -.00002357  00000-0 -17844-4 0  9990,2 56805  70.0030  66.0329 0003200 259.6311 100.4524 15.69915700 19698,6737.275,91.725,361.296,356.984,0.0
56805.0,STARLINK-6064,PAYLOAD,2023-10-01 20:21:50,15.69913377,0.0003214,70.0018,65.8532,260.495,99.5883,-2.7093e-05,-3.467e-05,0.0,0 STARLINK-6064,1 56805U 23078AQ  23274.84850400 -.00003467  00000-0 -27093-4 0  9998,2 56805  70.0018  65.8532 0003214 260.4950  99.5883 15.69913377 19448,6737.282,91.725,361.312,356.981,0.0
56805.0,STARLINK-6064,PAYLOAD,2023-10-02 19:18:06,15.69933475,0.0003584,69.9978,63.164,268.8385,91.24,1.4153e-05,1.49e-05,0.0,0 STARLINK-6064,1 56805U 23078AQ  23275.80424407  .00001490  00000-0  14153-4 0  9994,2 56805  69.9978  63.1640 0003584 268.8385  91.2400 15.69933475 19855,6737.224,91.724,361.504,356.675,0.0
56805.0,STARLINK-6064,PAYLOAD,2023-10-03 02:56:52,15.69923208,0.0003689,69.999,62.2671,269.3356,90.7417,-9.3059e-06,-1.332e-05,0.0,0 STARLINK-6064,1 56805U 23078AQ  23276.12283268 -.00001332  00000-0 -93059-5 0  9998,2 56805  69.9990  62.2671 0003689 269.3356  90.7417 15.69923208 19904,6737.254,91.724,361.604,356.633,0.0
56805.0,STARLINK-6064,PAYLOAD,2023-10-03 13:39:09,15.69915819,0.0003386,69.9997,61.0153,266.5529,93.5279,6.7322e-06,5.97e-06,0.0,0 STARLINK-6064,1 56805U 23078AQ  23276.56885537  .00000597  00000-0  67322-5 0  9997,2 56805  69.9997  61.0153 0003386 266.5529  93.5279 15.69915819 19713,6737.275,91.725,361.421,356.859,0.0
56805.0,STARLINK-6064,PAYLOAD,2023-10-03 19:46:09,15.69928548,0.0003535,70.0011,60.299,264.2451,95.8342,2.1093e-05,2.325e-05,0.0,0 STARLINK-6064,1 56805U 23078AQ  23276.82371543  .00002325  00000-0  21093-4 0  9998,2 56805  70.0011  60.2990 0003535 264.2451  95.8342 15.69928548 19751,6737.238,91.724,361.485,356.722,0.0
56805.0,STARLINK-6064,PAYLOAD,2023-10-04 11:03:39,15.69935696,0.000323,69.9974,58.5057,270.7346,89.3479,1.4635e-05,1.548e-05,0.0,0 STARLINK-6064,1 56805U 23078AQ  23277.46087736  .00001548  00000-0  14635-4 0  9997,2 56805  69.9974  58.5057 0003230 270.7346  89.3479 15.69935696 20110,6737.218,91.724,361.259,356.907,0.0
56805.0,STARLINK-6064,PAYLOAD,2023-10-04 12:35:26,15.69914979,0.0003331,69.9976,58.3278,261.8357,98.2461,-6.9137e-06,-1.044e-05,0.0,0 STARLINK-6064,1 56805U 23078AQ  23277.52460901 -.00001044  00000-0 -69137-5 0  9994,2 56805  69.9976  58.3278 0003331 261.8357  98.2461 15.69914979 19861,6737.277,91.725,361.386,356.898,0.0
56805.0,STARLINK-6064,PAYLOAD,2023-10-04 18:42:26,15.69923095,0.0003465,69.9975,57.6109,270.6798,89.4001,5.3642e-07,-1.48e-06,0.0,0 STARLINK-6064,1 56805U 23078AQ  23277.77946922 -.00000148  00000-0  53642-6 0  9991,2 56805  69.9975  57.6109 0003465 270.6798  89.4001 15.69923095 20166,6737.254,91.724,361.453,356.785,0.0
56805.0,STARLINK-6064,PAYLOAD,2023-10-05 02:21:12,15.69916153,0.0003405,69.9978,56.7145,271.4012,88.6794,-3.2234e-06,-6e-06,0.0,0 STARLINK-6064,1 56805U 23078AQ  23278.09805806 -.00000600  00000-0 -32234-5 0  9999,2 56805  69.9978  56.7145 0003405 271.4012  88.6794 15.69916153 20214,6737.274,91.725,361.433,356.845,0.0
